P/2011 A2 (Scotti),e,4.4750,54.6764,94.5230,3.105581,0.1800901,0.49944822,310.1763,02/28.0/2021,2000,g 16.5,4.0
# From MPC 84021
P/2011 C2 (Gibbs),e,10.8849,12.1245,160.9619,7.414065,0.0488224,0.26892658,163.3592,02/28.0/2021,2000,g  9.0,4.0
# From MPC 79866
P/2011 FR143 (Lemmon),e,15.9845,190.9510,350.1129,6.857712,0.0548827,0.45084616,200.3877,02/28.0/2021,2000,g 14.0,2.0
# From MPC 82317
P/2011 JB15 (Spacewatch-Boattini),e,19.1469,153.5888,111.0235,7.355618,0.0494055,0.31783192,164.1871,02/28.0/2021,2000,g  9.0,4.0
# From MPEC 2020-AA5
C/2011 KP36 (Spacewatch),e,18.9852,173.2879,180.6805,38.94364,0.0040555,0.87468617,7.0448,02/28.0/2021,2000,g  4.5,4.0
# From MPC 87913
P/2011 N1 (ASH),e,35.7187,77.5988,330.3355,6.249557,0.0630856,0.54384704,202.3270,02/28.0/2021,2000,g 11.5,4.0
# From MPC 75714
P/2011 NO1 (Elenin),e,15.2487,295.7944,263.8128,5.524056,0.0759131,0.77476985,280.1361,02/28.0/2021,2000,g 15.0,4.0
# From MPC 82318
P/2011 P1 (McNaught),e,5.6589,4.2382,348.9124,7.467309,0.0483012,0.32721381,187.1795,02/28.0/2021,2000,g  9.0,4.0
# From MPC 77806
P/2011 Q3 (McNaught),e,6.0571,32.0258,310.9826,4.970359,0.0889452,0.53263660,312.1958,02/28.0/2021,2000,g 13.5,4.0
# From MPC 98558
P/2011 S1 (Gibbs),e,2.6842,218.8911,192.4680,8.586563,0.0391719,0.20036555,93.7326,02/28.0/2021,2000,g  8.0,4.0
# From MPC 79022
P/2011 UA134 (Spacewatch-PANSTARRS),e,10.4417,40.4122,32.4421,5.605233,0.0742700,0.62929974,252.2118,02/28.0/2021,2000,g 17.5,4.0
# From MPC 77406
P/2011 V1 (Boattini),e,7.3763,46.8392,269.2683,3.855152,0.1302092,0.55061738,114.5575,02/28.0/2021,2000,g 15.5,4.0
# From MPC 82718
P/2011 W1 (PANSTARRS),e,3.7186,161.7902,282.7405,4.660575,0.0979591,0.28717245,326.2315,02/28.0/2021,2000,g 11.5,4.0
# From MPC 79342
P/2011 Y2 (Boattini),e,6.3714,309.3683,131.9200,6.239753,0.0632343,0.70933295,207.5185,02/28.0/2021,2000,g 15.0,4.0
# From MPC 94669
P/2012 B1 (PANSTARRS),e,7.6141,36.2062,162.5677,6.528568,0.0590850,0.40955380,164.3108,02/28.0/2021,2000,g  9.0,4.0
# From MPC 78590
P/2012 C3 (PANSTARRS),e,9.0920,135.3677,344.9542,9.748681,0.0323806,0.63011148,359.9758,10/06.0/2011,2000,g 13.0,4.0
# From MPC 84931
P/2012 F2 (PANSTARRS),e,14.7209,227.0474,33.2752,6.329506,0.0618941,0.54254229,178.1253,02/28.0/2021,2000,g 12.0,4.0
# From MPC 79344
P/2012 G1 (PANSTARRS),e,11.6925,282.5440,286.1149,4.172871,0.1156250,0.38072240,359.9500,06/01.0/2012,2000,g 15.0,4.0
# From MPC 80898
P/2012 K3 (Gibbs),e,13.1946,125.8083,172.1685,3.625256,0.1427895,0.42341964,80.0313,02/28.0/2021,2000,g 15.0,4.0
# From MPC 88326
P/2012 NJ (La Sagra),e,84.6634,315.5448,338.3390,8.460238,0.0400525,0.84727920,127.4335,02/28.0/2021,2000,g 14.5,4.0
# From MPC 81470
P/2012 O1 (McNaught),e,7.4321,91.9801,238.2290,3.540427,0.1479519,0.59457495,107.7821,02/28.0/2021,2000,g 17.5,4.0
# From MPC 80899
P/2012 O2 (McNaught),e,24.4862,120.6790,183.4198,3.623537,0.1428911,0.53276483,94.8599,02/28.0/2021,2000,g 17.0,4.0
# From MPC 82720
P/2012 O3 (McNaught),e,16.6154,336.4122,344.7210,4.574081,0.1007507,0.64698529,314.0824,02/28.0/2021,2000,g 16.5,4.0
# From MPC 82720
P/2012 S2 (La Sagra),e,8.6865,51.1913,312.4894,4.412719,0.1063273,0.69126079,333.8680,02/28.0/2021,2000,g 17.0,4.0
# From MPC 82320
P/2012 T2 (PANSTARRS),e,12.5574,73.7257,310.4347,5.736293,0.0717393,0.16104544,205.9426,02/28.0/2021,2000,g 10.0,4.0
# From MPC 80900
P/2012 T3 (PANSTARRS),e,9.5680,114.4064,195.4590,6.151953,0.0645929,0.61725263,208.2185,02/28.0/2021,2000,g 15.0,4.0
# From MPC 87914
P/2012 TK8 (Tenagra),e,6.3402,288.9653,127.9889,4.127431,0.1175396,0.27422357,331.7944,02/28.0/2021,2000,g 13.0,4.0
# From MPC 82720
P/2012 U2 (PANSTARRS),e,10.7520,185.2861,228.2895,7.140836,0.0516512,0.49814080,156.6829,02/28.0/2021,2000,g 12.5,4.0
# From MPC 84024
P/2012 US27 (Siding Spring),e,39.3370,49.1752,0.8094,5.166444,0.0839299,0.64753474,248.1932,02/28.0/2021,2000,g 13.5,4.0
# From MPC 82721
P/2012 WA34 (Lemmon-PANSTARRS),e,6.1024,94.3064,353.8120,4.748415,0.0952535,0.34484291,278.7498,02/28.0/2021,2000,g 13.5,4.0
# From MPC 82721
P/2013 AL76 (Catalina),e,144.8328,145.9726,27.1060,6.497327,0.0595116,0.68617209,178.7066,02/28.0/2021,2000,g 16.0,4.0
# From MPC 91612
P/2013 G1 (Kowalski),e,5.4662,221.3944,51.4148,6.888733,0.0545124,0.51297645,143.5621,02/28.0/2021,2000,g 11.0,4.0
# From MPC 84025
P/2013 G4 (PANSTARRS),e,5.9163,339.6400,214.6972,4.439721,0.1053587,0.40955259,309.7966,02/28.0/2021,2000,g 15.0,4.0
# From MPC 91613
P/2013 J2 (McNaught),e,15.5332,289.4225,37.7404,6.223091,0.0634885,0.65758980,174.0230,02/28.0/2021,2000,g 13.0,4.0
# From MPC 86229
P/2013 N3 (PANSTARRS),e,2.1735,17.4818,323.8731,7.391044,0.0490507,0.59318538,126.0334,02/28.0/2021,2000,g 13.0,4.0
# From MPC 85834
P/2013 N5 (PANSTARRS),e,23.4292,187.1633,176.8901,6.798895,0.0555964,0.73197400,155.5213,02/28.0/2021,2000,g 17.0,4.0
# From MPC 85834
P/2013 P1 (PANSTARRS),e,18.7221,160.6083,138.1254,8.570052,0.0392852,0.60601014,114.7111,02/28.0/2021,2000,g 12.0,4.0
# From MPC 94671
P/2013 R3 (Catalina-PANSTARRS),e,0.8654,342.0007,11.1628,3.033835,0.1865160,0.27515401,151.8491,02/28.0/2021,2000,g 14.0,4.0
# From unp
P/2013 R3-A (Catalina-PANSTARRS),e,0.8647,341.9675,11.2017,3.033693,0.1865291,0.27512347,151.8826,02/28.0/2021,2000,g  9.0,4.0
# From MPEC 2015-M77
P/2013 R3-B (Catalina-PANSTARRS),e,0.8660,342.0234,11.1367,3.033912,0.1865090,0.27516905,151.8312,02/28.0/2021,2000,g  9.0,4.0
# From MPC 85835
P/2013 T1 (PANSTARRS),e,24.2809,10.0857,346.0878,5.860880,0.0694640,0.62375814,192.2087,02/28.0/2021,2000,g 16.5,4.0
# From MPC 86643
P/2013 T2 (Schwartz),e,9.4562,0.8121,345.4958,3.489759,0.1511858,0.50121025,68.8462,02/28.0/2021,2000,g 16.0,4.0
# From MPC 91613
P/2013 W1 (PANSTARRS),e,4.6954,117.8478,1.2877,3.490544,0.1511347,0.59280342,25.7988,02/28.0/2021,2000,g 17.5,4.0
# From MPC111767
C/2013 X1 (PANSTARRS),h,04/19.4268/2016,163.1947,131.5697,165.1871,1.000490,1.324524,2000,10.5,2.0
# From MPC101095
P/2013 YG46 (Spacewatch),e,7.8558,48.8591,242.5155,3.276182,0.1662080,0.45491019,247.4669,02/28.0/2021,2000,g 10.0,4.0
# From MPC 89728
P/2014 A2 (Hill),e,24.5388,106.6295,356.2217,5.926636,0.0683112,0.64536594,184.0063,02/28.0/2021,2000,g 15.0,4.0
# From MPC 92981
P/2014 A3 (PANSTARRS),e,13.6848,230.1281,213.1300,4.626711,0.0990366,0.24720237,282.8669,02/28.0/2021,2000,g 12.0,4.0
# From MPC119994
C/2014 B1 (Schwartz),e,28.4078,161.4158,345.7596,7333,0.0000016,0.99869732,0.0000,09/08.5045/2017,2000,g  4.0,4.0
# From MPC102095
P/2014 C1 (TOTAS),e,2.6870,167.7624,24.0134,3.039595,0.1859861,0.44793835,127.6843,02/28.0/2021,2000,g 15.5,4.0
# From MPC 94280
C/2014 F3 (Sheppard-Trujillo),e,6.5953,326.7452,3.3892,15.65583,0.0159107,0.63656432,358.7511,02/28.0/2021,2000,g  6.0,4.0
# From MPC 98560
P/2014 L2 (NEOWISE),e,5.1983,149.3483,182.6515,6.303668,0.0622750,0.64818137,150.4371,02/28.0/2021,2000,g 12.0,4.0
# From MPC 90769
P/2014 L3 (Hill),e,6.2775,115.4707,178.6473,8.168585,0.0422167,0.77382549,102.7291,02/28.0/2021,2000,g 16.0,4.0
# From MPC 91614
P/2014 M4 (PANSTARRS),e,3.3359,263.2629,147.9529,5.874164,0.0692285,0.59411473,156.2456,02/28.0/2021,2000,g 15.0,4.0
# From MPC103844
P/2014 MG4 (Spacewatch-PANSTARRS),e,9.3715,311.7339,299.1010,5.011964,0.0878400,0.25965920,246.9595,02/28.0/2021,2000,g  9.5,4.0
# From MPC 98560
P/2014 O3 (PANSTARRS),e,7.8063,87.6434,204.6104,7.564352,0.0473747,0.38611477,118.6767,02/28.0/2021,2000,g 10.5,4.0
# From MPEC 2020-AA5
C/2014 OE4 (PANSTARRS),h,12/12.9238/2016,81.3102,240.4169,65.8860,1.003110,6.249246,2000,11.0,2.0
# From MPC115880
C/2014 R3 (PANSTARRS),e,90.9238,334.0954,113.4430,14104,0.0000006,0.99948427,0.0000,08/08.9393/2016,2000,g  6.5,4.0
# From MPC 91615
P/2014 R5 (Lemmon-PANSTARRS),e,1.0883,126.5583,213.7283,4.056379,0.1206414,0.41362368,295.2129,02/28.0/2021,2000,g 15.0,4.0
# From MPC 91616
P/2014 U4 (PANSTARRS),e,6.4292,11.8905,347.7377,3.506265,0.1501195,0.46492875,2.1761,02/28.0/2021,2000,g 18.0,4.0
# From MPC 95211
P/2014 V1 (PANSTARRS),e,22.5191,166.2010,177.5736,5.481120,0.0768069,0.53424972,171.0813,02/28.0/2021,2000,g 14.0,4.0
# From MPC 93586
P/2014 W1 (PANSTARRS),e,8.8382,246.2455,152.2330,4.461926,0.1045732,0.38870608,252.7937,02/28.0/2021,2000,g 15.5,4.0
# From MPC110493
C/2014 W2 (PANSTARRS),e,82.0724,69.9895,84.9373,558.3940,0.0000747,0.99521076,0.0000,03/07.8375/2016,2000,g  7.5,4.0
# From MPC105542
P/2014 W4 (PANSTARRS),e,15.2732,33.3572,67.8279,6.598368,0.0581499,0.35208381,109.7352,02/28.0/2021,2000,g 11.0,4.0
# From MPC115880
C/2014 W10 (PANSTARRS),e,82.8856,43.0981,43.6487,808.5500,0.0000429,0.99063293,0.0000,03/04.2429/2016,2000,g  8.0,4.0
# From MPC 93587
P/2014 W12 (Gibbs),e,8.5139,299.2904,36.8856,3.519648,0.1492641,0.52422028,343.3899,02/28.0/2021,2000,g 15.0,4.0
# From MPC 94281
P/2014 X1 (Elenin),e,26.0061,61.5087,33.9673,6.209515,0.0636968,0.70855773,143.3351,02/28.0/2021,2000,g 15.0,4.0
# From MPC 92275
P/2015 A3 (PANSTARRS),e,172.5300,277.1818,249.2532,7.808174,0.0451731,0.85126649,99.4791,02/28.0/2021,2000,g 20.0,4.0
# From MPC 99270
P/2015 B1 (PANSTARRS),e,18.0321,353.0075,188.8563,9.499096,0.0336652,0.36820338,67.0927,02/28.0/2021,2000,g  8.5,4.0
# From MPC108592
C/2015 B2 (PANSTARRS),e,104.9891,341.8469,284.7205,16520,0.0000005,0.99979593,0.0000,05/05.3454/2016,2000,g  9.5,4.0
# From MPC109141
P/2015 B4 (Lemmon-PANSTARRS),e,1.7600,266.0250,227.4645,8.531446,0.0395522,0.56019842,87.6443,02/28.0/2021,2000,g 11.0,4.0
# From MPC101096
P/2015 C1 (TOTAS-Gibbs),e,13.8927,348.8184,178.3123,6.584384,0.0583353,0.56026026,124.4744,02/28.0/2021,2000,g 12.5,4.0
# From MPC119995
C/2015 D3 (PANSTARRS),h,05/02.3962/2016,128.5491,157.0621,2.9507,1.003572,8.143469,2000,5.5,4.0
# From MPC109141
P/2015 D5 (Kowalski),e,20.5015,74.0599,39.8786,8.970167,0.0366862,0.48882055,92.6539,02/28.0/2021,2000,g  9.0,4.0
# From MPC 96866
P/2015 D6 (Lemmon-PANSTARRS),e,20.2017,46.0138,125.1787,7.144844,0.0516078,0.36185944,106.6652,02/28.0/2021,2000,g 10.5,4.0
# From MPC112390
